start=new Date('2023-05-22T00:00:00.000Z').valueOf();
sats=[{"MEAN_MOTION_DOT":"-0.00000595","FILE":"3914061","DECAY_DATE":null,"GP_ID":"232285729","NORAD_CAT_ID":"55453","ARG_OF_PERICENTER":"267.7819","TIME_SYSTEM":"UTC","ECCENTRICITY":"0.00014350","RA_OF_ASC_NODE":"123.5763","SITE":"AFETR","PERIAPSIS":"558.116","INCLINATION":"43.0033","MEAN_MOTION":"15.02526115","TLE_LINE1":"1 55453U 23015E   23141.94807147 -.00000595  00000-0 -28958-4 0  9991","MEAN_ELEMENT_THEORY":"SGP4","MEAN_ANOMALY":"92.2859","REF_FRAME":"TEME","REV_AT_EPOCH":"1690","EPHEMERIS_TYPE":"0","SEMIMAJOR_AXIS":"6937.247","OBJECT_ID":"2023-015E","ELEMENT_SET_NO":"999","CENTER_NAME":"EARTH","TLE_LINE2":"2 55453  43.0033 123.5763 0001435 267.7819  92.2859 15.02526115 16906","COUNTRY_CODE":"US","BSTAR":"-0.00002895800000","CLASSIFICATION_TYPE":"U","PERIOD":"95.839","APOAPSIS":"560.107","MEAN_MOTION_DDOT":"0.0000000000000","OBJECT_TYPE":"PAYLOAD","RCS_SIZE":"LARGE","EPOCH":"2023-05-21T22:45:13.375008","OBJECT_NAME":"STARLINK-5684","LAUNCH_DATE":"2023-02-02"},{"PERIOD":"95.842","CLASSIFICATION_TYPE":"U","OBJECT_TYPE":"PAYLOAD","APOAPSIS":"559.935","MEAN_MOTION_DDOT":"0.0000000000000","LAUNCH_DATE":"2023-02-02","EPOCH":"2023-05-21T16:12:44.680896","RCS_SIZE":"LARGE","OBJECT_NAME":"STARLINK-5636","ELEMENT_SET_NO":"999","CENTER_NAME":"EARTH","EPHEMERIS_TYPE":"0","OBJECT_ID":"2023-015F","SEMIMAJOR_AXIS":"6937.422","TLE_LINE2":"2 55454  43.0022 124.9712 0000935 275.8299  84.2436 15.02469403 16863","COUNTRY_CODE":"US","BSTAR":"0.00073241000000","INCLINATION":"43.0022","PERIAPSIS":"558.638","ECCENTRICITY":"0.00009350","SITE":"AFETR","RA_OF_ASC_NODE":"124.9712","REF_FRAME":"TEME","REV_AT_EPOCH":"1686","TLE_LINE1":"1 55454U 23015F   23141.67551714  .00009686  00000-0  73241-3 0  9990","MEAN_MOTION":"15.02469403","MEAN_ANOMALY":"84.2436","MEAN_ELEMENT_THEORY":"SGP4","FILE":"3914061","DECAY_DATE":null,"MEAN_MOTION_DOT":"0.00009686","TIME_SYSTEM":"UTC","ARG_OF_PERICENTER":"275.8299","GP_ID":"232286981","NORAD_CAT_ID":"55454"},{"MEAN_ELEMENT_THEORY":"SGP4","MEAN_ANOMALY":"88.8704","TLE_LINE1":"1 55455U 23015G   23141.95362625 -.00001588  00000-0 -10252-3 0  9991","MEAN_MOTION":"15.02525052","REV_AT_EPOCH":"1690","REF_FRAME":"TEME","SITE":"AFETR","RA_OF_ASC_NODE":"123.6191","ECCENTRICITY":"0.00014430","INCLINATION":"43.0033","PERIAPSIS":"558.114","NORAD_CAT_ID":"55455","GP_ID":"232286731","ARG_OF_PERICENTER":"271.1973","TIME_SYSTEM":"UTC","MEAN_MOTION_DOT":"-0.00001588","DECAY_DATE":null,"FILE":"3914061","OBJECT_NAME":"STARLINK-5680","EPOCH":"2023-05-21T22:53:13.308000","RCS_SIZE":"LARGE","LAUNCH_DATE":"2023-02-02","OBJECT_TYPE":"PAYLOAD","MEAN_MOTION_DDOT":"0.0000000000000","APOAPSIS":"560.116","PERIOD":"95.839","CLASSIFICATION_TYPE":"U","BSTAR":"-0.00010252000000","COUNTRY_CODE":"US","TLE_LINE2":"2 55455  43.0033 123.6191 0001443 271.1973  88.8704 15.02525052 16902","OBJECT_ID":"2023-015G","SEMIMAJOR_AXIS":"6937.250","EPHEMERIS_TYPE":"0","CENTER_NAME":"EARTH","ELEMENT_SET_NO":"999"},{"CENTER_NAME":"EARTH","ELEMENT_SET_NO":"999","OBJECT_ID":"2023-015H","SEMIMAJOR_AXIS":"6937.263","EPHEMERIS_TYPE":"0","BSTAR":"-0.00008430200000","TLE_LINE2":"2 55456  43.0033 123.5347 0001226 275.6746  84.3956 15.02520921 16901","COUNTRY_CODE":"US","OBJECT_TYPE":"PAYLOAD","MEAN_MOTION_DDOT":"0.0000000000000","APOAPSIS":"559.978","PERIOD":"95.839","CLASSIFICATION_TYPE":"U","LAUNCH_DATE":"2023-02-02","OBJECT_NAME":"STARLINK-5058","EPOCH":"2023-05-21T22:37:14.477952","RCS_SIZE":"LARGE","DECAY_DATE":null,"FILE":"3914061","MEAN_MOTION_DOT":"-0.00001342","ARG_OF_PERICENTER":"275.6746","TIME_SYSTEM":"UTC","NORAD_CAT_ID":"55456","GP_ID":"232285980","INCLINATION":"43.0033","PERIAPSIS":"558.277","SITE":"AFETR","RA_OF_ASC_NODE":"123.5347","ECCENTRICITY":"0.00012260","REV_AT_EPOCH":"1690","REF_FRAME":"TEME","MEAN_ANOMALY":"84.3956","MEAN_ELEMENT_THEORY":"SGP4","TLE_LINE1":"1 55456U 23015H   23141.94252868 -.00001342  00000-0 -84302-4 0  9994","MEAN_MOTION":"15.02520921"},{"RA_OF_ASC_NODE":"123.5512","SITE":"AFETR","ECCENTRICITY":"0.00012350","PERIAPSIS":"558.250","INCLINATION":"43.0034","MEAN_ANOMALY":"94.9165","MEAN_ELEMENT_THEORY":"SGP4","MEAN_MOTION":"15.02527966","TLE_LINE1":"1 55457U 23015J   23141.94474369 -.00001494  00000-0 -95588-4 0  9993","REV_AT_EPOCH":"1690","REF_FRAME":"TEME","MEAN_MOTION_DOT":"-0.00001494","DECAY_DATE":null,"FILE":"3914061","NORAD_CAT_ID":"55457","GP_ID":"232286230","TIME_SYSTEM":"UTC","ARG_OF_PERICENTER":"265.1536","APOAPSIS":"559.963","MEAN_MOTION_DDOT":"0.0000000000000","OBJECT_TYPE":"PAYLOAD","CLASSIFICATION_TYPE":"U","PERIOD":"95.838","OBJECT_NAME":"STARLINK-5682","RCS_SIZE":"LARGE","EPOCH":"2023-05-21T22:40:25.854816","LAUNCH_DATE":"2023-02-02","SEMIMAJOR_AXIS":"6937.241","OBJECT_ID":"2023-015J","EPHEMERIS_TYPE":"0","CENTER_NAME":"EARTH","ELEMENT_SET_NO":"999","BSTAR":"-0.00009558800000","TLE_LINE2":"2 55457  43.0034 123.5512 0001235 265.1536  94.9165 15.02527966 16903","COUNTRY_CODE":"US"},{"TLE_LINE2":"2 55458  43.0035 123.4371 0001658 252.7732 107.2929 15.02094329 16904","COUNTRY_CODE":"US","BSTAR":"-0.00383860000000","ELEMENT_SET_NO":"999","CENTER_NAME":"EARTH","EPHEMERIS_TYPE":"0","SEMIMAJOR_AXIS":"6938.576","OBJECT_ID":"2023-015K","LAUNCH_DATE":"2023-02-02","RCS_SIZE":"LARGE","EPOCH":"2023-05-21T22:18:45.689472","OBJECT_NAME":"STARLINK-5020","CLASSIFICATION_TYPE":"U","PERIOD":"95.866","APOAPSIS":"561.592","MEAN_MOTION_DDOT":"0.0000000000000","OBJECT_TYPE":"PAYLOAD","ARG_OF_PERICENTER":"252.7732","TIME_SYSTEM":"UTC","GP_ID":"232286481","NORAD_CAT_ID":"55458","FILE":"3914061","DECAY_DATE":null,"MEAN_MOTION_DOT":"-0.00051082","REF_FRAME":"TEME","REV_AT_EPOCH":"1690","MEAN_MOTION":"15.02094329","TLE_LINE1":"1 55458U 23015K   23141.92969548 -.00051082  00000-0 -38386-2 0  9999","MEAN_ELEMENT_THEORY":"SGP4","MEAN_ANOMALY":"107.2929","PERIAPSIS":"559.291","INCLINATION":"43.0035","ECCENTRICITY":"0.00016580","RA_OF_ASC_NODE":"123.4371","SITE":"AFETR"},{"REF_FRAME":"TEME","REV_AT_EPOCH":"1686","TLE_LINE1":"1 55459U 23015L   23141.66915905 -.00036760  00000-0 -27423-2 0  9995","MEAN_MOTION":"15.02233680","MEAN_ANOMALY":"90.9254","MEAN_ELEMENT_THEORY":"SGP4","INCLINATION":"43.0035","PERIAPSIS":"558.794","ECCENTRICITY":"0.00017560","SITE":"AFETR","RA_OF_ASC_NODE":"124.9225","TIME_SYSTEM":"UTC","ARG_OF_PERICENTER":"269.1387","GP_ID":"232287232","NORAD_CAT_ID":"55459","FILE":"3914061","DECAY_DATE":null,"MEAN_MOTION_DOT":"-0.00036760","LAUNCH_DATE":"2023-02-02","EPOCH":"2023-05-21T16:03:35.341920","RCS_SIZE":"LARGE","OBJECT_NAME":"STARLINK-5669","PERIOD":"95.857","CLASSIFICATION_TYPE":"U","OBJECT_TYPE":"PAYLOAD","APOAPSIS":"561.231","MEAN_MOTION_DDOT":"0.0000000000000","COUNTRY_CODE":"US","TLE_LINE2":"2 55459  43.0035 124.9225 0001756 269.1387  90.9254 15.02233680 16865","BSTAR":"-0.00274230000000","ELEMENT_SET_NO":"999","CENTER_NAME":"EARTH","EPHEMERIS_TYPE":"0","OBJECT_ID":"2023-015L","SEMIMAJOR_AXIS":"6938.147"},{"ARG_OF_PERICENTER":"252.8469","TIME_SYSTEM":"UTC","GP_ID":"232285480","NORAD_CAT_ID":"55460","FILE":"3914061","DECAY_DATE":null,"MEAN_MOTION_DOT":"-0.00051291","REF_FRAME":"TEME","REV_AT_EPOCH":"1690","MEAN_MOTION":"15.02092858","TLE_LINE1":"1 55460U 23015M   23141.93191461 -.00051291  00000-0 -38546-2 0  9994","MEAN_ANOMALY":"107.2177","MEAN_ELEMENT_THEORY":"SGP4","PERIAPSIS":"559.198","INCLINATION":"43.0034","ECCENTRICITY":"0.00017980","RA_OF_ASC_NODE":"123.4539","SITE":"AFETR","TLE_LINE2":"2 55460  43.0034 123.4539 0001798 252.8469 107.2177 15.02092858 16905","COUNTRY_CODE":"US","BSTAR":"-0.00385460000000","ELEMENT_SET_NO":"999","CENTER_NAME":"EARTH","EPHEMERIS_TYPE":"0","SEMIMAJOR_AXIS":"6938.581","OBJECT_ID":"2023-015M","LAUNCH_DATE":"2023-02-02","RCS_SIZE":"LARGE","EPOCH":"2023-05-21T22:21:57.422304","OBJECT_NAME":"STARLINK-5678","CLASSIFICATION_TYPE":"U","PERIOD":"95.866","APOAPSIS":"561.693","MEAN_MOTION_DDOT":"0.0000000000000","OBJECT_TYPE":"PAYLOAD"},{"COUNTRY_CODE":"US","TLE_LINE2":"2 55461  43.0033 124.9371 0001387 271.1649  88.9034 15.02530965 16861","BSTAR":"-0.00003310100000","EPHEMERIS_TYPE":"0","SEMIMAJOR_AXIS":"6937.232","OBJECT_ID":"2023-015N","ELEMENT_SET_NO":"999","CENTER_NAME":"EARTH","RCS_SIZE":"LARGE","EPOCH":"2023-05-21T16:06:19.452672","OBJECT_NAME":"STARLINK-5646","LAUNCH_DATE":"2023-02-02","CLASSIFICATION_TYPE":"U","PERIOD":"95.838","MEAN_MOTION_DDOT":"0.0000000000000","APOAPSIS":"560.059","OBJECT_TYPE":"PAYLOAD","GP_ID":"232285730","NORAD_CAT_ID":"55461","TIME_SYSTEM":"UTC","ARG_OF_PERICENTER":"271.1649","MEAN_MOTION_DOT":"-0.00000651","FILE":"3914061","DECAY_DATE":null,"MEAN_MOTION":"15.02530965","TLE_LINE1":"1 55461U 23015N   23141.67105848 -.00000651  00000-0 -33101-4 0  9998","MEAN_ELEMENT_THEORY":"SGP4","MEAN_ANOMALY":"88.9034","REF_FRAME":"TEME","REV_AT_EPOCH":"1686","ECCENTRICITY":"0.00013870","RA_OF_ASC_NODE":"124.9371","SITE":"AFETR","PERIAPSIS":"558.135","INCLINATION":"43.0033"},{"EPHEMERIS_TYPE":"0","SEMIMAJOR_AXIS":"6937.247","OBJECT_ID":"2023-015P","ELEMENT_SET_NO":"999","CENTER_NAME":"EARTH","TLE_LINE2":"2 55462  43.0034 123.3738 0001282 267.0881  92.9815 15.02526030 16904","COUNTRY_CODE":"US","BSTAR":"-0.00006388100000","CLASSIFICATION_TYPE":"U","PERIOD":"95.839","APOAPSIS":"560.002","MEAN_MOTION_DDOT":"0.0000000000000","OBJECT_TYPE":"PAYLOAD","RCS_SIZE":"LARGE","EPOCH":"2023-05-21T22:06:52.053984","OBJECT_NAME":"STARLINK-5673","LAUNCH_DATE":"2023-02-02","MEAN_MOTION_DOT":"-0.00001066","FILE":"3914061","DECAY_DATE":null,"GP_ID":"232286982","NORAD_CAT_ID":"55462","ARG_OF_PERICENTER":"267.0881","TIME_SYSTEM":"UTC","ECCENTRICITY":"0.00012820","RA_OF_ASC_NODE":"123.3738","SITE":"AFETR","PERIAPSIS":"558.223","INCLINATION":"43.0034","MEAN_MOTION":"15.02526030","TLE_LINE1":"1 55462U 23015P   23141.92143581 -.00001066  00000-0 -63881-4 0  9992","MEAN_ELEMENT_THEORY":"SGP4","MEAN_ANOMALY":"92.9815","REF_FRAME":"TEME","REV_AT_EPOCH":"1690"}];
